ONEWEB-0196             
1 48218U 21031J   24363.34783315 -.00000041  00000+0 -14557-3 0  9993
2 48218  87.8997  36.2558 0001764  97.8649 262.2681 13.14500998177836
ONEWEB-0183             
1 48219U 21031K   24363.55083024  .00000251  00000+0  64214-3 0  9993
2 48219  87.8995  36.2299 0001959  94.3094 265.8259 13.14503222177955
ONEWEB-0185             
1 48220U 21031L   24363.34863821 -.00000064  00000+0 -20597-3 0  9993
2 48220  87.8995  36.2408 0002042 100.5497 259.5863 13.14504046177855
ONEWEB-0187             
1 48221U 21031M   24363.54684866  .00000304  00000+0  78424-3 0  9993
2 48221  87.8994  36.2365 0001906  97.2907 262.8440 13.14506293177891
ONEWEB-0192             
1 48222U 21031N   24363.37478817 -.00000051  00000+0 -17191-3 0  9997
2 48222  87.8996  36.2684 0001756  99.8530 260.2798 13.14506050177788
ONEWEB-0219             
1 48223U 21031P   24363.12583955 -.00000152  00000+0 -44433-3 0  9992
2 48223  87.8995  36.2911 0001991 100.3337 259.8017 13.14503296177951
ONEWEB-0202             
1 48224U 21031Q   24363.48739659  .00000164  00000+0  40714-3 0  9995
2 48224  87.8996  36.2363 0001799 122.6802 237.4502 13.14502907177986
ONEWEB-0204             
1 48225U 21031R   24363.52147472 -.00000161  00000+0 -46943-3 0  9996
2 48225  87.8994  36.2415 0002040  88.4286 271.7077 13.14504386177888
